[{"OBJECT_NAME":"STARLINK-3520","OBJECT_ID":"2022-016AD","EPOCH":"2026-03-09T23:21:27.888480","MEAN_MOTION":15.08839564,"ECCENTRICITY":0.00013505,"INCLINATION":53.2184,"RA_OF_ASC_NODE":317.858,"ARG_OF_PERICENTER":96.0024,"MEAN_ANOMALY":264.1122,"EPHEMERIS_TYPE":0,"CLASSIFICATION_TYPE":"U","NORAD_CAT_ID":51741,"ELEMENT_SET_NO":999,"REV_AT_EPOCH":22360,"BSTAR":-5.8768291e-5,"MEAN_MOTION_DOT":-1.223e-5,"MEAN_MOTION_DDOT":0},{"OBJECT_NAME":"OBJECT B","OBJECT_ID":"2024-018B","EPOCH":"2026-03-09T23:37:58.932768","MEAN_MOTION":14.43067172,"ECCENTRICITY":0.04162119,"INCLINATION":58.6942,"RA_OF_ASC_NODE":207.6312,"ARG_OF_PERICENTER":352.1605,"MEAN_ANOMALY":7.3044,"EPHEMERIS_TYPE":0,"CLASSIFICATION_TYPE":"U","NORAD_CAT_ID":58850,"ELEMENT_SET_NO":999,"REV_AT_EPOCH":11107,"BSTAR":0.00029384903,"MEAN_MOTION_DOT":2.642e-5,"MEAN_MOTION_DDOT":0}]
